SAUDISAT 1C (SO-50)     
1 27607U 02058C   22231.39328391  .00000434  00000+0  79950-4 0  9999
2 27607  64.5545 109.2858 0080838 282.3659  76.8404 14.76205796 57668
SAUDISAT 2              
1 28371U 04025F   22231.57309709  .00000131  00000+0  41706-4 0  9998
2 28371  98.3829 188.4571 0024304 271.4570  88.3795 14.54585409962467
SAUDISAT 3              
1 31118U 07012B   22231.43382926  .00000216  00000+0  44706-4 0  9994
2 31118  97.9720 176.9681 0015098   0.9548 359.1684 14.69353563822358
PISAT                   
1 41784U 16059B   22231.36380710  .00000449  00000+0  94128-4 0  9997
2 41784  97.9115 272.2529 0030996 332.9957  26.9632 14.63972422314895
FLYING LAPTOP           
1 42831U 17042G   22231.51143190  .00000097  00000+0  14696-4 0  9991
2 42831  97.4175  82.2850 0014355 150.8488 209.3547 14.91876535277498
SALSAT                  
1 46495U 20068K   22231.40802324  .00001832  00000+0  13412-3 0  9994
2 46495  97.7301 172.7449 0017909  66.6223 293.6884 15.04725215103659
