[{"OBJECT_NAME":"SAUDISAT 1C","OBJECT_ID":"2002-058C","EPOCH":"2022-08-19T09:26:19.729824","MEAN_MOTION":14.76205796,"ECCENTRICITY":0.0080838,"INCLINATION":64.5545,"RA_OF_ASC_NODE":109.2858,"ARG_OF_PERICENTER":282.3659,"MEAN_ANOMALY":76.8404,"EPHEMERIS_TYPE":0,"CLASSIFICATION_TYPE":"U","NORAD_CAT_ID":27607,"ELEMENT_SET_NO":999,"REV_AT_EPOCH":5766,"BSTAR":7.995e-5,"MEAN_MOTION_DOT":4.34e-6,"MEAN_MOTION_DDOT":0},{"OBJECT_NAME":"SAUDISAT 2","OBJECT_ID":"2004-025F","EPOCH":"2022-08-19T13:45:15.588576","MEAN_MOTION":14.54585409,"ECCENTRICITY":0.0024304,"INCLINATION":98.3829,"RA_OF_ASC_NODE":188.4571,"ARG_OF_PERICENTER":271.457,"MEAN_ANOMALY":88.3795,"EPHEMERIS_TYPE":0,"CLASSIFICATION_TYPE":"U","NORAD_CAT_ID":28371,"ELEMENT_SET_NO":999,"REV_AT_EPOCH":96246,"BSTAR":4.1706e-5,"MEAN_MOTION_DOT":1.31e-6,"MEAN_MOTION_DDOT":0},{"OBJECT_NAME":"SAUDISAT 3","OBJECT_ID":"2007-012B","EPOCH":"2022-08-19T10:24:42.848064","MEAN_MOTION":14.69353563,"ECCENTRICITY":0.0015098,"INCLINATION":97.972,"RA_OF_ASC_NODE":176.9681,"ARG_OF_PERICENTER":0.9548,"MEAN_ANOMALY":359.1684,"EPHEMERIS_TYPE":0,"CLASSIFICATION_TYPE":"U","NORAD_CAT_ID":31118,"ELEMENT_SET_NO":999,"REV_AT_EPOCH":82235,"BSTAR":4.4706e-5,"MEAN_MOTION_DOT":2.16e-6,"MEAN_MOTION_DDOT":0},{"OBJECT_NAME":"PISAT","OBJECT_ID":"2016-059B","EPOCH":"2022-08-19T08:43:52.933440","MEAN_MOTION":14.63972422,"ECCENTRICITY":0.0030996,"INCLINATION":97.9115,"RA_OF_ASC_NODE":272.2529,"ARG_OF_PERICENTER":332.9957,"MEAN_ANOMALY":26.9632,"EPHEMERIS_TYPE":0,"CLASSIFICATION_TYPE":"U","NORAD_CAT_ID":41784,"ELEMENT_SET_NO":999,"REV_AT_EPOCH":31489,"BSTAR":9.4128e-5,"MEAN_MOTION_DOT":4.49e-6,"MEAN_MOTION_DDOT":0},{"OBJECT_NAME":"FLYING LAPTOP","OBJECT_ID":"2017-042G","EPOCH":"2022-08-19T12:16:27.716160","MEAN_MOTION":14.91876535,"ECCENTRICITY":0.0014355,"INCLINATION":97.4175,"RA_OF_ASC_NODE":82.285,"ARG_OF_PERICENTER":150.8488,"MEAN_ANOMALY":209.3547,"EPHEMERIS_TYPE":0,"CLASSIFICATION_TYPE":"U","NORAD_CAT_ID":42831,"ELEMENT_SET_NO":999,"REV_AT_EPOCH":27749,"BSTAR":1.4696e-5,"MEAN_MOTION_DOT":9.7e-7,"MEAN_MOTION_DDOT":0},{"OBJECT_NAME":"SALSAT","OBJECT_ID":"2020-068K","EPOCH":"2022-08-19T09:47:33.207936","MEAN_MOTION":15.04725215,"ECCENTRICITY":0.0017909,"INCLINATION":97.7301,"RA_OF_ASC_NODE":172.7449,"ARG_OF_PERICENTER":66.6223,"MEAN_ANOMALY":293.6884,"EPHEMERIS_TYPE":0,"CLASSIFICATION_TYPE":"U","NORAD_CAT_ID":46495,"ELEMENT_SET_NO":999,"REV_AT_EPOCH":10365,"BSTAR":0.00013412,"MEAN_MOTION_DOT":1.832e-5,"MEAN_MOTION_DDOT":0}]